{"type": "FeatureCollection", "features": [ {"type": "Feature", "properties": {"norad_id": 42741, "name": "EUTELSAT 172B", "group": "eutelsat", "lat": -0.019920309053485952, "lon": -35.09565582272403, "alt_km": 35787.14358247049, "timestamp": "2025-12-25T03:55:55.978962+00:00", "meta": {"OBJECT_NAME": "EUTELSAT 172B", "OBJECT_ID": "2017-029B", "EPOCH": "2025-12-24T17:20:31.693056", "MEAN_MOTION": 1.00270234, "ECCENTRICITY": 1.53e-05, "INCLINATION": 0.0315, "RA_OF_ASC_NODE": 134.3733, "ARG_OF_PERICENTER": 4.6509, "MEAN_ANOMALY": 26.6031, "EPHEMERIS_TYPE": 0, "CLASSIFICATION_TYPE": "U", "NORAD_CAT_ID": 42741, "ELEMENT_SET_NO": 999, "REV_AT_EPOCH": 3198, "BSTAR": 0, "MEAN_MOTION_DOT": 1.5e-07, "MEAN_MOTION_DDOT": 0}, "tle": {"line1": "1 42741U 17029B   25358.72258904  .00000015  00000+0  00000+0 0  9991", "line2": "2 42741   0.0315 134.3733 0000153   4.6509  26.6031  1.00270234 31984"}}, "geometry": {"type": "Point", "coordinates": [-35.09565582272403, -0.019920309053485952]}}, {"type": "Feature", "properties": {"norad_id": 44334, "name": "EUTELSAT 7C", "group": "eutelsat", "lat": -0.007886068099699352, "lon": 159.84097475099313, "alt_km": 35788.19643334537, "timestamp": "2025-12-25T03:55:55.978974+00:00", "meta": {"OBJECT_NAME": "EUTELSAT 7C", "OBJECT_ID": "2019-034B", "EPOCH": "2025-12-24T14:50:38.546016", "MEAN_MOTION": 1.00270796, "ECCENTRICITY": 0.0003159, "INCLINATION": 0.0726, "RA_OF_ASC_NODE": 177.7928, "ARG_OF_PERICENTER": 79.9691, "MEAN_ANOMALY": 65.2631, "EPHEMERIS_TYPE": 0, "CLASSIFICATION_TYPE": "U", "NORAD_CAT_ID": 44334, "ELEMENT_SET_NO": 999, "REV_AT_EPOCH": 508, "BSTAR": 0, "MEAN_MOTION_DOT": 6.9e-07, "MEAN_MOTION_DDOT": 0}, "tle": {"line1": "1 44334U 19034B   25358.61850169  .00000069  00000+0  00000+0 0  9997", "line2": "2 44334   0.0726 177.7928 0003159  79.9691  65.2631  1.00270796  5083"}}, "geometry": {"type": "Point", "coordinates": [159.84097475099313, -0.007886068099699352]}}, {"type": "Feature", "properties": {"norad_id": 44624, "name": "EUTELSAT 5 WEST B", "group": "eutelsat", "lat": 0.02936678760083356, "lon": 147.87627792050137, "alt_km": 35793.73000590732, "timestamp": "2025-12-25T03:55:55.978986+00:00", "meta": {"OBJECT_NAME": "EUTELSAT 5 WEST B", "OBJECT_ID": "2019-067A", "EPOCH": "2025-12-24T16:29:59.033184", "MEAN_MOTION": 1.00271313, "ECCENTRICITY": 0.0003125, "INCLINATION": 0.0635, "RA_OF_ASC_NODE": 343.2156, "ARG_OF_PERICENTER": 289.3111, "MEAN_ANOMALY": 63.4298, "EPHEMERIS_TYPE": 0, "CLASSIFICATION_TYPE": "U", "NORAD_CAT_ID": 44624, "ELEMENT_SET_NO": 999, "REV_AT_EPOCH": 2268, "BSTAR": 0, "MEAN_MOTION_DOT": -2.1e-07, "MEAN_MOTION_DDOT": 0}, "tle": {"line1": "1 44624U 19067A   25358.68748881 -.00000021  00000+0  00000+0 0  9998", "line2": "2 44624   0.0635 343.2156 0003125 289.3111  63.4298  1.00271313 22684"}}, "geometry": {"type": "Point", "coordinates": [147.87627792050137, 0.02936678760083356]}}, {"type": "Feature", "properties": {"norad_id": 45027, "name": "EUTELSAT KONNECT", "group": "eutelsat", "lat": 0.07366498518273655, "lon": 160.0882067419936, "alt_km": 35789.69648075866, "timestamp": "2025-12-25T03:55:55.978997+00:00", "meta": {"OBJECT_NAME": "EUTELSAT KONNECT", "OBJECT_ID": "2020-005B", "EPOCH": "2025-12-24T14:50:46.034304", "MEAN_MOTION": 1.00269906, "ECCENTRICITY": 0.0001462, "INCLINATION": 0.0704, "RA_OF_ASC_NODE": 94.2723, "ARG_OF_PERICENTER": 186.2921, "MEAN_ANOMALY": 42.7194, "EPHEMERIS_TYPE": 0, "CLASSIFICATION_TYPE": "U", "NORAD_CAT_ID": 45027, "ELEMENT_SET_NO": 999, "REV_AT_EPOCH": 2258, "BSTAR": 0, "MEAN_MOTION_DOT": 7e-07, "MEAN_MOTION_DDOT": 0}, "tle": {"line1": "1 45027U 20005B   25358.61858836  .00000070  00000+0  00000+0 0  9998", "line2": "2 45027   0.0704  94.2723 0001462 186.2921  42.7194  1.00269906 22587"}}, "geometry": {"type": "Point", "coordinates": [160.0882067419936, 0.07366498518273655]}}, {"type": "Feature", "properties": {"norad_id": 49056, "name": "EUTELSAT QUANTUM", "group": "eutelsat", "lat": -0.003830391705833046, "lon": -159.43355700011955, "alt_km": 35784.07962872384, "timestamp": "2025-12-25T03:55:55.979009+00:00", "meta": {"OBJECT_NAME": "EUTELSAT QUANTUM", "OBJECT_ID": "2021-069B", "EPOCH": "2025-12-24T20:37:38.640864", "MEAN_MOTION": 1.00270973, "ECCENTRICITY": 0.0003464, "INCLINATION": 0.0115, "RA_OF_ASC_NODE": 15.195, "ARG_OF_PERICENTER": 266.8229, "MEAN_ANOMALY": 168.7231, "EPHEMERIS_TYPE": 0, "CLASSIFICATION_TYPE": "U", "NORAD_CAT_ID": 49056, "ELEMENT_SET_NO": 999, "REV_AT_EPOCH": 1618, "BSTAR": 0, "MEAN_MOTION_DOT": 1.47e-06, "MEAN_MOTION_DDOT": 0}, "tle": {"line1": "1 49056U 21069B   25358.85947501  .00000147  00000+0  00000+0 0  9994", "line2": "2 49056   0.0115  15.1950 0003464 266.8229 168.7231  1.00270973 16189"}}, "geometry": {"type": "Point", "coordinates": [-159.43355700011955, -0.003830391705833046]}}, {"type": "Feature", "properties": {"norad_id": 53765, "name": "EUTELSAT KONNECT VHTS", "group": "eutelsat", "lat": 0.06032903440844482, "lon": 155.59123221880856, "alt_km": 35787.81928022835, "timestamp": "2025-12-25T03:55:55.979021+00:00", "meta": {"OBJECT_NAME": "EUTELSAT KONNECT VHTS", "OBJECT_ID": "2022-110A", "EPOCH": "2025-12-24T16:32:13.818048", "MEAN_MOTION": 1.00267467, "ECCENTRICITY": 0.0002482, "INCLINATION": 0.0598, "RA_OF_ASC_NODE": 98.3611, "ARG_OF_PERICENTER": 150.0857, "MEAN_ANOMALY": 95.793, "EPHEMERIS_TYPE": 0, "CLASSIFICATION_TYPE": "U", "NORAD_CAT_ID": 53765, "ELEMENT_SET_NO": 999, "REV_AT_EPOCH": 507, "BSTAR": 0, "MEAN_MOTION_DOT": 3.8e-07, "MEAN_MOTION_DDOT": 0}, "tle": {"line1": "1 53765U 22110A   25358.68904882  .00000038  00000+0  00000+0 0  9999", "line2": "2 53765   0.0598  98.3611 0002482 150.0857  95.7930  1.00267467  5078"}}, "geometry": {"type": "Point", "coordinates": [155.59123221880856, 0.06032903440844482]}}, {"type": "Feature", "properties": {"norad_id": 54048, "name": "EUTELSAT HOTBIRD 13F", "group": "eutelsat", "lat": -0.03435314840966394, "lon": 165.90391649114522, "alt_km": 35795.23245780107, "timestamp": "2025-12-25T03:55:55.979034+00:00", "meta": {"OBJECT_NAME": "EUTELSAT HOTBIRD 13F", "OBJECT_ID": "2022-134A", "EPOCH": "2025-12-24T16:35:06.041760", "MEAN_MOTION": 1.00270762, "ECCENTRICITY": 0.0002201, "INCLINATION": 0.055, "RA_OF_ASC_NODE": 289.1731, "ARG_OF_PERICENTER": 72.2821, "MEAN_ANOMALY": 353.7761, "EPHEMERIS_TYPE": 0, "CLASSIFICATION_TYPE": "U", "NORAD_CAT_ID": 54048, "ELEMENT_SET_NO": 999, "REV_AT_EPOCH": 1162, "BSTAR": 0, "MEAN_MOTION_DOT": 1.08e-06, "MEAN_MOTION_DDOT": 0}, "tle": {"line1": "1 54048U 22134A   25358.69104215  .00000108  00000+0  00000+0 0  9991", "line2": "2 54048   0.0550 289.1731 0002201  72.2821 353.7761  1.00270762 11628"}}, "geometry": {"type": "Point", "coordinates": [165.90391649114522, -0.03435314840966394]}}, {"type": "Feature", "properties": {"norad_id": 54225, "name": "EUTELSAT HOTBIRD 13G", "group": "eutelsat", "lat": -0.033850623113471236, "lon": 165.88471925078383, "alt_km": 35779.702689346545, "timestamp": "2025-12-25T03:55:55.979046+00:00", "meta": {"OBJECT_NAME": "EUTELSAT HOTBIRD 13G", "OBJECT_ID": "2022-146A", "EPOCH": "2025-12-24T00:28:38.654112", "MEAN_MOTION": 1.00268836, "ECCENTRICITY": 0.00017131, "INCLINATION": 0.0535, "RA_OF_ASC_NODE": 227.8066, "ARG_OF_PERICENTER": 307.349, "MEAN_ANOMALY": 297.8001, "EPHEMERIS_TYPE": 0, "CLASSIFICATION_TYPE": "U", "NORAD_CAT_ID": 54225, "ELEMENT_SET_NO": 999, "REV_AT_EPOCH": 571, "BSTAR": 0, "MEAN_MOTION_DOT": 1.08e-06, "MEAN_MOTION_DDOT": 0}, "tle": {"line1": "1 54225U 22146A   25358.01989183  .00000108  00000+0  00000+0 0  9992", "line2": "2 54225   0.0535 227.8066 0001713 307.3490 297.8001  1.00268836  5716"}}, "geometry": {"type": "Point", "coordinates": [165.88471925078383, -0.033850623113471236]}}, {"type": "Feature", "properties": {"norad_id": 54259, "name": "EUTELSAT 10B", "group": "eutelsat", "lat": 0.06255087114556443, "lon": 162.93030411139117, "alt_km": 35783.64793174576, "timestamp": "2025-12-25T03:55:55.979058+00:00", "meta": {"OBJECT_NAME": "EUTELSAT 10B", "OBJECT_ID": "2022-157A", "EPOCH": "2025-12-24T16:34:13.627200", "MEAN_MOTION": 1.00269899, "ECCENTRICITY": 7.06e-05, "INCLINATION": 0.0593, "RA_OF_ASC_NODE": 95.6956, "ARG_OF_PERICENTER": 56.3425, "MEAN_ANOMALY": 200.0071, "EPHEMERIS_TYPE": 0, "CLASSIFICATION_TYPE": "U", "NORAD_CAT_ID": 54259, "ELEMENT_SET_NO": 999, "REV_AT_EPOCH": 1127, "BSTAR": 0, "MEAN_MOTION_DOT": 8.9e-07, "MEAN_MOTION_DDOT": 0}, "tle": {"line1": "1 54259U 22157A   25358.69043550  .00000089  00000+0  00000+0 0  9992", "line2": "2 54259   0.0593  95.6956 0000706  56.3425 200.0071  1.00269899 11277"}}, "geometry": {"type": "Point", "coordinates": [162.93030411139117, 0.06255087114556443]}}, {"type": "Feature", "properties": {"norad_id": 59346, "name": "EUTELSAT 36D", "group": "eutelsat", "lat": 0.01065116472515737, "lon": -171.21728931872627, "alt_km": 35787.185086159916, "timestamp": "2025-12-25T03:55:55.979069+00:00", "meta": {"OBJECT_NAME": "EUTELSAT 36D", "OBJECT_ID": "2024-059A", "EPOCH": "2025-12-24T13:16:10.091712", "MEAN_MOTION": 1.00273098, "ECCENTRICITY": 3.73e-05, "INCLINATION": 0.0177, "RA_OF_ASC_NODE": 32.0645, "ARG_OF_PERICENTER": 329.4708, "MEAN_ANOMALY": 326.7078, "EPHEMERIS_TYPE": 0, "CLASSIFICATION_TYPE": "U", "NORAD_CAT_ID": 59346, "ELEMENT_SET_NO": 999, "REV_AT_EPOCH": 639, "BSTAR": 0, "MEAN_MOTION_DOT": 1.77e-06, "MEAN_MOTION_DDOT": 0}, "tle": {"line1": "1 59346U 24059A   25358.55289458  .00000177  00000+0  00000+0 0  9999", "line2": "2 59346   0.0177  32.0645 0000373 329.4708 326.7078  1.00273098  6391"}}, "geometry": {"type": "Point", "coordinates": [-171.21728931872627, 0.01065116472515737]}}]}